[{"OBJECT_NAME":"GALAXY 18 (G-18)","OBJECT_ID":"2008-024A","EPOCH":"2026-03-14T23:19:42.826944","MEAN_MOTION":1.00272991,"ECCENTRICITY":0.00030556,"INCLINATION":0.0195,"RA_OF_ASC_NODE":108.6449,"ARG_OF_PERICENTER":259.1238,"MEAN_ANOMALY":31.7351,"EPHEMERIS_TYPE":0,"CLASSIFICATION_TYPE":"U","NORAD_CAT_ID":32951,"ELEMENT_SET_NO":999,"REV_AT_EPOCH":4490,"BSTAR":0,"MEAN_MOTION_DOT":2.4e-7,"MEAN_MOTION_DDOT":0},{"OBJECT_NAME":"BLOCK DM-SL R/B","OBJECT_ID":"2008-024B","EPOCH":"2026-03-14T19:52:52.536576","MEAN_MOTION":2.14621193,"ECCENTRICITY":0.65397091,"INCLINATION":1.2941,"RA_OF_ASC_NODE":12.1321,"ARG_OF_PERICENTER":96.3319,"MEAN_ANOMALY":336.8206,"EPHEMERIS_TYPE":0,"CLASSIFICATION_TYPE":"U","NORAD_CAT_ID":32952,"ELEMENT_SET_NO":999,"REV_AT_EPOCH":13963,"BSTAR":0,"MEAN_MOTION_DOT":-6.0e-8,"MEAN_MOTION_DDOT":0},{"OBJECT_NAME":"COSMOS 1124 DEB","OBJECT_ID":"1979-077H","EPOCH":"2026-03-08T15:14:46.098528","MEAN_MOTION":2.0981422,"ECCENTRICITY":0.67524166,"INCLINATION":65.374,"RA_OF_ASC_NODE":189.4764,"ARG_OF_PERICENTER":331.5858,"MEAN_ANOMALY":4.0902,"EPHEMERIS_TYPE":0,"CLASSIFICATION_TYPE":"U","NORAD_CAT_ID":32982,"ELEMENT_SET_NO":999,"REV_AT_EPOCH":21880,"BSTAR":0,"MEAN_MOTION_DOT":2.53e-6,"MEAN_MOTION_DDOT":0},{"OBJECT_NAME":"SATCOM 3 DEB","OBJECT_ID":"1979-101L","EPOCH":"2026-03-14T16:47:47.507424","MEAN_MOTION":1.80670236,"ECCENTRICITY":0.47708656,"INCLINATION":7.6969,"RA_OF_ASC_NODE":173.9683,"ARG_OF_PERICENTER":289.3389,"MEAN_ANOMALY":12.8237,"EPHEMERIS_TYPE":0,"CLASSIFICATION_TYPE":"U","NORAD_CAT_ID":32985,"ELEMENT_SET_NO":999,"REV_AT_EPOCH":11893,"BSTAR":0,"MEAN_MOTION_DOT":-1.8e-7,"MEAN_MOTION_DDOT":0},{"OBJECT_NAME":"SATCOM 3 DEB","OBJECT_ID":"1979-101N","EPOCH":"2026-03-09T14:57:01.914048","MEAN_MOTION":1.83463474,"ECCENTRICITY":0.4928612,"INCLINATION":9.8156,"RA_OF_ASC_NODE":37.6124,"ARG_OF_PERICENTER":198.4816,"MEAN_ANOMALY":348.7653,"EPHEMERIS_TYPE":0,"CLASSIFICATION_TYPE":"U","NORAD_CAT_ID":32987,"ELEMENT_SET_NO":999,"REV_AT_EPOCH":12106,"BSTAR":0,"MEAN_MOTION_DOT":-8.4e-7,"MEAN_MOTION_DDOT":0},{"OBJECT_NAME":"ZHONGXING-9","OBJECT_ID":"2008-028A","EPOCH":"2026-03-13T19:15:25.189632","MEAN_MOTION":1.00270101,"ECCENTRICITY":0.00083743,"INCLINATION":0.5233,"RA_OF_ASC_NODE":86.8156,"ARG_OF_PERICENTER":249.5125,"MEAN_ANOMALY":216.3123,"EPHEMERIS_TYPE":0,"CLASSIFICATION_TYPE":"U","NORAD_CAT_ID":33051,"ELEMENT_SET_NO":999,"REV_AT_EPOCH":6508,"BSTAR":0,"MEAN_MOTION_DOT":-2.49e-6,"MEAN_MOTION_DDOT":0},{"OBJECT_NAME":"SKYNET 5C","OBJECT_ID":"2008-030A","EPOCH":"2026-03-15T06:40:23.065536","MEAN_MOTION":1.00271939,"ECCENTRICITY":0.00051019,"INCLINATION":3.5471,"RA_OF_ASC_NODE":78.1511,"ARG_OF_PERICENTER":291.819,"MEAN_ANOMALY":245.1964,"EPHEMERIS_TYPE":0,"CLASSIFICATION_TYPE":"U","NORAD_CAT_ID":33055,"ELEMENT_SET_NO":999,"REV_AT_EPOCH":6501,"BSTAR":0,"MEAN_MOTION_DOT":-1.39e-6,"MEAN_MOTION_DDOT":0},{"OBJECT_NAME":"TURKSAT 3A","OBJECT_ID":"2008-030B","EPOCH":"2026-03-15T05:35:38.700384","MEAN_MOTION":1.00273258,"ECCENTRICITY":0.00047478,"INCLINATION":0.045,"RA_OF_ASC_NODE":83.747,"ARG_OF_PERICENTER":297.9352,"MEAN_ANOMALY":277.0413,"EPHEMERIS_TYPE":0,"CLASSIFICATION_TYPE":"U","NORAD_CAT_ID":33056,"ELEMENT_SET_NO":999,"REV_AT_EPOCH":5141,"BSTAR":0,"MEAN_MOTION_DOT":1.45e-6,"MEAN_MOTION_DDOT":0},{"OBJECT_NAME":"SL-23 R/B","OBJECT_ID":"2008-022B","EPOCH":"2026-03-15T06:07:40.128384","MEAN_MOTION":0.95533755,"ECCENTRICITY":0.05442412,"INCLINATION":13.5462,"RA_OF_ASC_NODE":33.1576,"ARG_OF_PERICENTER":53.8552,"MEAN_ANOMALY":106.5221,"EPHEMERIS_TYPE":0,"CLASSIFICATION_TYPE":"U","NORAD_CAT_ID":33059,"ELEMENT_SET_NO":999,"REV_AT_EPOCH":6207,"BSTAR":0,"MEAN_MOTION_DOT":-1.33e-6,"MEAN_MOTION_DDOT":0},{"OBJECT_NAME":"COSMOS 2440","OBJECT_ID":"2008-033A","EPOCH":"2026-03-14T22:34:47.134848","MEAN_MOTION":1.00276225,"ECCENTRICITY":0.00047631,"INCLINATION":10.4031,"RA_OF_ASC_NODE":41.8601,"ARG_OF_PERICENTER":224.5017,"MEAN_ANOMALY":324.7648,"EPHEMERIS_TYPE":0,"CLASSIFICATION_TYPE":"U","NORAD_CAT_ID":33108,"ELEMENT_SET_NO":999,"REV_AT_EPOCH":6484,"BSTAR":0,"MEAN_MOTION_DOT":-1.41e-6,"MEAN_MOTION_DDOT":0},{"OBJECT_NAME":"SL-12 R/B(2)","OBJECT_ID":"2008-033D","EPOCH":"2026-03-15T00:02:04.675200","MEAN_MOTION":1.00275619,"ECCENTRICITY":0.00314768,"INCLINATION":10.3836,"RA_OF_ASC_NODE":41.9945,"ARG_OF_PERICENTER":335.5853,"MEAN_ANOMALY":214.83,"EPHEMERIS_TYPE":0,"CLASSIFICATION_TYPE":"U","NORAD_CAT_ID":33111,"ELEMENT_SET_NO":999,"REV_AT_EPOCH":6486,"BSTAR":0,"MEAN_MOTION_DOT":4.6e-7,"MEAN_MOTION_DDOT":0},{"OBJECT_NAME":"INTELSAT 25 (IS-25)","OBJECT_ID":"2008-034A","EPOCH":"2026-03-15T01:28:30.474048","MEAN_MOTION":1.00270237,"ECCENTRICITY":0.00032395,"INCLINATION":2.4631,"RA_OF_ASC_NODE":81.4725,"ARG_OF_PERICENTER":251.3174,"MEAN_ANOMALY":190.4936,"EPHEMERIS_TYPE":0,"CLASSIFICATION_TYPE":"U","NORAD_CAT_ID":33153,"ELEMENT_SET_NO":999,"REV_AT_EPOCH":6475,"BSTAR":0,"MEAN_MOTION_DOT":-2.24e-6,"MEAN_MOTION_DDOT":0},{"OBJECT_NAME":"ECHOSTAR 11","OBJECT_ID":"2008-035A","EPOCH":"2026-03-15T06:14:10.578624","MEAN_MOTION":1.0027209,"ECCENTRICITY":0.00025388,"INCLINATION":0.7603,"RA_OF_ASC_NODE":85.3116,"ARG_OF_PERICENTER":257.4268,"MEAN_ANOMALY":173.6655,"EPHEMERIS_TYPE":0,"CLASSIFICATION_TYPE":"U","NORAD_CAT_ID":33207,"ELEMENT_SET_NO":999,"REV_AT_EPOCH":5027,"BSTAR":0,"MEAN_MOTION_DOT":-5.7e-7,"MEAN_MOTION_DDOT":0},{"OBJECT_NAME":"BLOCK DM-SL R/B","OBJECT_ID":"2008-035B","EPOCH":"2026-03-15T06:14:18.066912","MEAN_MOTION":2.26262458,"ECCENTRICITY":0.7135836,"INCLINATION":0.6382,"RA_OF_ASC_NODE":319.3017,"ARG_OF_PERICENTER":315.7485,"MEAN_ANOMALY":321.3511,"EPHEMERIS_TYPE":0,"CLASSIFICATION_TYPE":"U","NORAD_CAT_ID":33208,"ELEMENT_SET_NO":999,"REV_AT_EPOCH":14601,"BSTAR":-0.0011271762,"MEAN_MOTION_DOT":-1.1e-7,"MEAN_MOTION_DDOT":0},{"OBJECT_NAME":"SUPERBIRD-C2","OBJECT_ID":"2008-038A","EPOCH":"2026-03-15T00:31:20.812224","MEAN_MOTION":1.00274401,"ECCENTRICITY":0.00018241,"INCLINATION":2.1164,"RA_OF_ASC_NODE":82.4612,"ARG_OF_PERICENTER":358.52,"MEAN_ANOMALY":235.4829,"EPHEMERIS_TYPE":0,"CLASSIFICATION_TYPE":"U","NORAD_CAT_ID":33274,"ELEMENT_SET_NO":999,"REV_AT_EPOCH":10478,"BSTAR":0,"MEAN_MOTION_DOT":-3.06e-6,"MEAN_MOTION_DDOT":0},{"OBJECT_NAME":"INMARSAT 4-F3","OBJECT_ID":"2008-039A","EPOCH":"2026-03-14T23:26:49.643808","MEAN_MOTION":1.00271334,"ECCENTRICITY":0.00027736,"INCLINATION":4.2124,"RA_OF_ASC_NODE":31.2382,"ARG_OF_PERICENTER":335.255,"MEAN_ANOMALY":59.7942,"EPHEMERIS_TYPE":0,"CLASSIFICATION_TYPE":"U","NORAD_CAT_ID":33278,"ELEMENT_SET_NO":999,"REV_AT_EPOCH":4560,"BSTAR":0,"MEAN_MOTION_DOT":-1.38e-6,"MEAN_MOTION_DDOT":0},{"OBJECT_NAME":"BREEZE-M R/B","OBJECT_ID":"2008-039C","EPOCH":"2026-03-14T14:54:17.862912","MEAN_MOTION":2.01433594,"ECCENTRICITY":0.59616311,"INCLINATION":23.0698,"RA_OF_ASC_NODE":19.4867,"ARG_OF_PERICENTER":326.8752,"MEAN_ANOMALY":6.9984,"EPHEMERIS_TYPE":0,"CLASSIFICATION_TYPE":"U","NORAD_CAT_ID":33280,"ELEMENT_SET_NO":999,"REV_AT_EPOCH":12922,"BSTAR":0,"MEAN_MOTION_DOT":1.54e-6,"MEAN_MOTION_DDOT":0}]
